{
  "norad_id": 41599,
  "name": "CARTOSAT-2C",
  "history": [
    {
      "epoch": "2026-03-28T21:41:47.891328",
      "apogee_km": 515.0544591161661,
      "perigee_km": 501.1559564681784,
      "latitude_deg": 62.57344778474442,
      "longitude_deg": -133.3134540799074,
      "semi_major_axis_km": 6886.242207792172,
      "eccentricity": 0.00100915,
      "inclination_deg": 97.4575,
      "raan_deg": 148.9497,
      "arg_perigee_deg": 60.2183,
      "mean_anomaly_deg": 300.0054,
      "mean_motion_rev_day": 15.19250266
    },
    {
      "epoch": "2026-03-29T04:01:10.322112",
      "apogee_km": 515.0045918463056,
      "perigee_km": 501.17429465767873,
      "latitude_deg": -80.40664600403751,
      "longitude_deg": -108.02186431991868,
      "semi_major_axis_km": 6886.226443251992,
      "eccentricity": 0.0010042,
      "inclination_deg": 97.4574,
      "raan_deg": 149.2098,
      "arg_perigee_deg": 59.3661,
      "mean_anomaly_deg": 300.8562,
      "mean_motion_rev_day": 15.19255483
    }
  ]
}